[
    {
        "CCSDS_OMM_VERS": "3.0",
        "COMMENT": "GENERATED VIA SPACE-TRACK.ORG API",
        "CREATION_DATE": "2025-03-02T18:08:23",
        "ORIGINATOR": "18 SPCS",
        "OBJECT_NAME": "BEIDOU 3M14",
        "OBJECT_ID": "2018-072B",
        "CENTER_NAME": "EARTH",
        "REF_FRAME": "TEME",
        "TIME_SYSTEM": "UTC",
        "MEAN_ELEMENT_THEORY": "SGP4",
        "EPOCH": "2025-03-02T10:02:18.638592",
        "MEAN_MOTION": "1.86231020",
        "ECCENTRICITY": "0.00062780",
        "INCLINATION": "56.2111",
        "RA_OF_ASC_NODE": "78.2711",
        "ARG_OF_PERICENTER": "320.1108",
        "MEAN_ANOMALY": "39.8926",
        "EPHEMERIS_TYPE": "0",
        "CLASSIFICATION_TYPE": "U",
        "NORAD_CAT_ID": "43623",
        "ELEMENT_SET_NO": "999",
        "REV_AT_EPOCH": "4386",
        "BSTAR": "0.00000000000000",
        "MEAN_MOTION_DOT": "0.00000008",
        "MEAN_MOTION_DDOT": "0.0000000000000",
        "SEMIMAJOR_AXIS": "27906.187",
        "PERIOD": "773.233",
        "APOAPSIS": "21545.571",
        "PERIAPSIS": "21510.532",
        "OBJECT_TYPE": "PAYLOAD",
        "RCS_SIZE": "LARGE",
        "COUNTRY_CODE": "PRC",
        "LAUNCH_DATE": "2018-09-19",
        "SITE": "XSC",
        "DECAY_DATE": null,
        "FILE": "4657142",
        "GP_ID": "282087682",
        "TLE_LINE0": "0 BEIDOU 3M14",
        "TLE_LINE1": "1 43623U 18072B   25061.41827128  .00000008  00000-0  00000-0 0  9991",
        "TLE_LINE2": "2 43623  56.2111  78.2711 0006278 320.1108  39.8926  1.86231020 43861"
    }
]